[{"OBJECT_NAME":"STARLINK-35420","OBJECT_ID":"2025-245AC","EPOCH":"2026-03-09T20:45:08.121312","MEAN_MOTION":15.3020528,"ECCENTRICITY":6.901e-5,"INCLINATION":53.158,"RA_OF_ASC_NODE":283.0536,"ARG_OF_PERICENTER":117.201,"MEAN_ANOMALY":242.9061,"EPHEMERIS_TYPE":0,"CLASSIFICATION_TYPE":"U","NORAD_CAT_ID":66260,"ELEMENT_SET_NO":999,"REV_AT_EPOCH":2128,"BSTAR":0.00081961264,"MEAN_MOTION_DOT":0.00023998,"MEAN_MOTION_DDOT":0},{"OBJECT_NAME":"KUIPER-00213","OBJECT_ID":"2026-030P","EPOCH":"2026-03-09T22:00:01.999584","MEAN_MOTION":15.32626943,"ECCENTRICITY":0.00152813,"INCLINATION":51.8816,"RA_OF_ASC_NODE":218.5142,"ARG_OF_PERICENTER":64.2462,"MEAN_ANOMALY":206.8369,"EPHEMERIS_TYPE":0,"CLASSIFICATION_TYPE":"U","NORAD_CAT_ID":67777,"ELEMENT_SET_NO":999,"REV_AT_EPOCH":502,"BSTAR":0.0016072376,"MEAN_MOTION_DOT":0.00051551,"MEAN_MOTION_DDOT":0}]
